{"type": "FeatureCollection", "features": [ {"type": "Feature", "properties": {"norad_id": 37834, "name": "INTELSAT 18 (IS-18)", "group": "intelsat", "lat": -0.013536790382738617, "lon": -164.01545818937856, "alt_km": 35786.81143920665, "timestamp": "2025-12-27T18:38:03.147017+00:00", "meta": {"OBJECT_NAME": "INTELSAT 18 (IS-18)", "OBJECT_ID": "2011-056A", "EPOCH": "2025-12-27T11:28:38.823168", "MEAN_MOTION": 1.00272052, "ECCENTRICITY": 0.0002019, "INCLINATION": 0.0114, "RA_OF_ASC_NODE": 306.9385, "ARG_OF_PERICENTER": 344.7118, "MEAN_ANOMALY": 156.7191, "EPHEMERIS_TYPE": 0, "CLASSIFICATION_TYPE": "U", "NORAD_CAT_ID": 37834, "ELEMENT_SET_NO": 999, "REV_AT_EPOCH": 5209, "BSTAR": 0, "MEAN_MOTION_DOT": 7.5e-07, "MEAN_MOTION_DDOT": 0}, "tle": {"line1": "1 37834U 11056A   25361.47822712  .00000075  00000+0  00000+0 0  9998", "line2": "2 37834   0.0114 306.9385 0002019 344.7118 156.7191  1.00272052 52092"}}, "geometry": {"type": "Point", "coordinates": [-164.01545818937856, -0.013536790382738617]}}, {"type": "Feature", "properties": {"norad_id": 38098, "name": "INTELSAT 22 (IS-22)", "group": "intelsat", "lat": 0.03507087111099115, "lon": 88.103401255119, "alt_km": 35793.37268964181, "timestamp": "2025-12-27T18:38:03.147030+00:00", "meta": {"OBJECT_NAME": "INTELSAT 22 (IS-22)", "OBJECT_ID": "2012-011A", "EPOCH": "2025-12-27T09:55:15.521376", "MEAN_MOTION": 1.00270718, "ECCENTRICITY": 0.0001968, "INCLINATION": 0.0353, "RA_OF_ASC_NODE": 54.9749, "ARG_OF_PERICENTER": 245.9915, "MEAN_ANOMALY": 16.0772, "EPHEMERIS_TYPE": 0, "CLASSIFICATION_TYPE": "U", "NORAD_CAT_ID": 38098, "ELEMENT_SET_NO": 999, "REV_AT_EPOCH": 546, "BSTAR": 0, "MEAN_MOTION_DOT": 0, "MEAN_MOTION_DDOT": 0}, "tle": {"line1": "1 38098U 12011A   25361.41337409  .00000000  00000+0  00000+0 0  9999", "line2": "2 38098   0.0353  54.9749 0001968 245.9915  16.0772  1.00270718  5462"}}, "geometry": {"type": "Point", "coordinates": [88.103401255119, 0.03507087111099115]}}, {"type": "Feature", "properties": {"norad_id": 38356, "name": "INTELSAT 19 (IS-19)", "group": "intelsat", "lat": 0.0008436002327728399, "lon": -178.01645443746105, "alt_km": 35786.44736574556, "timestamp": "2025-12-27T18:38:03.147042+00:00", "meta": {"OBJECT_NAME": "INTELSAT 19 (IS-19)", "OBJECT_ID": "2012-030A", "EPOCH": "2025-12-27T10:38:38.520096", "MEAN_MOTION": 1.00271929, "ECCENTRICITY": 0.0003069, "INCLINATION": 0.0092, "RA_OF_ASC_NODE": 2.3196, "ARG_OF_PERICENTER": 271.4758, "MEAN_ANOMALY": 148.0498, "EPHEMERIS_TYPE": 0, "CLASSIFICATION_TYPE": "U", "NORAD_CAT_ID": 38356, "ELEMENT_SET_NO": 999, "REV_AT_EPOCH": 4872, "BSTAR": 0, "MEAN_MOTION_DOT": -3.4e-07, "MEAN_MOTION_DDOT": 0}, "tle": {"line1": "1 38356U 12030A   25361.44350139 -.00000034  00000+0  00000+0 0  9993", "line2": "2 38356   0.0092   2.3196 0003069 271.4758 148.0498  1.00271929 48727"}}, "geometry": {"type": "Point", "coordinates": [-178.01645443746105, 0.0008436002327728399]}}, {"type": "Feature", "properties": {"norad_id": 38740, "name": "INTELSAT 20 (IS-20)", "group": "intelsat", "lat": 0.016733238379717498, "lon": 84.4944731011288, "alt_km": 35787.61336983463, "timestamp": "2025-12-27T18:38:03.147055+00:00", "meta": {"OBJECT_NAME": "INTELSAT 20 (IS-20)", "OBJECT_ID": "2012-043A", "EPOCH": "2025-12-27T11:36:58.279104", "MEAN_MOTION": 1.00271103, "ECCENTRICITY": 0.0001644, "INCLINATION": 0.0146, "RA_OF_ASC_NODE": 67.542, "ARG_OF_PERICENTER": 118.2059, "MEAN_ANOMALY": 153.2145, "EPHEMERIS_TYPE": 0, "CLASSIFICATION_TYPE": "U", "NORAD_CAT_ID": 38740, "ELEMENT_SET_NO": 999, "REV_AT_EPOCH": 4902, "BSTAR": 0, "MEAN_MOTION_DOT": -2e-08, "MEAN_MOTION_DDOT": 0}, "tle": {"line1": "1 38740U 12043A   25361.48400786 -.00000002  00000+0  00000+0 0  9997", "line2": "2 38740   0.0146  67.5420 0001644 118.2059 153.2145  1.00271103 49021"}}, "geometry": {"type": "Point", "coordinates": [84.4944731011288, 0.016733238379717498]}}, {"type": "Feature", "properties": {"norad_id": 38749, "name": "INTELSAT 21 (IS-21)", "group": "intelsat", "lat": -0.010499442042588134, "lon": -41.95963868515759, "alt_km": 35780.6056007747, "timestamp": "2025-12-27T18:38:03.147068+00:00", "meta": {"OBJECT_NAME": "INTELSAT 21 (IS-21)", "OBJECT_ID": "2012-045A", "EPOCH": "2025-12-27T11:00:46.744704", "MEAN_MOTION": 1.00271024, "ECCENTRICITY": 0.0001924, "INCLINATION": 0.008, "RA_OF_ASC_NODE": 328.8178, "ARG_OF_PERICENTER": 303.9006, "MEAN_ANOMALY": 290.6832, "EPHEMERIS_TYPE": 0, "CLASSIFICATION_TYPE": "U", "NORAD_CAT_ID": 38749, "ELEMENT_SET_NO": 999, "REV_AT_EPOCH": 4880, "BSTAR": 0, "MEAN_MOTION_DOT": -2.62e-06, "MEAN_MOTION_DDOT": 0}, "tle": {"line1": "1 38749U 12045A   25361.45887436 -.00000262  00000+0  00000+0 0  9994", "line2": "2 38749   0.0080 328.8178 0001924 303.9006 290.6832  1.00271024 48802"}}, "geometry": {"type": "Point", "coordinates": [-41.95963868515759, -0.010499442042588134]}}, {"type": "Feature", "properties": {"norad_id": 38867, "name": "INTELSAT 23 (IS-23)", "group": "intelsat", "lat": -0.027039847264048938, "lon": -36.97445848593114, "alt_km": 35782.93878552407, "timestamp": "2025-12-27T18:38:03.147080+00:00", "meta": {"OBJECT_NAME": "INTELSAT 23 (IS-23)", "OBJECT_ID": "2012-057A", "EPOCH": "2025-12-27T11:02:16.603296", "MEAN_MOTION": 1.00272569, "ECCENTRICITY": 7.24e-05, "INCLINATION": 0.0219, "RA_OF_ASC_NODE": 82.5501, "ARG_OF_PERICENTER": 226.6145, "MEAN_ANOMALY": 259.6095, "EPHEMERIS_TYPE": 0, "CLASSIFICATION_TYPE": "U", "NORAD_CAT_ID": 38867, "ELEMENT_SET_NO": 999, "REV_AT_EPOCH": 4823, "BSTAR": 0, "MEAN_MOTION_DOT": -2.62e-06, "MEAN_MOTION_DDOT": 0}, "tle": {"line1": "1 38867U 12057A   25361.45991439 -.00000262  00000+0  00000+0 0  9997", "line2": "2 38867   0.0219  82.5501 0000724 226.6145 259.6095  1.00272569 48231"}}, "geometry": {"type": "Point", "coordinates": [-36.97445848593114, -0.027039847264048938]}}, {"type": "Feature", "properties": {"norad_id": 39360, "name": "FM-6", "group": "intelsat", "lat": -0.01552175400913208, "lon": -100.15987679347398, "alt_km": 35784.85815863277, "timestamp": "2025-12-27T18:38:03.147092+00:00", "meta": {"OBJECT_NAME": "FM-6", "OBJECT_ID": "2013-058A", "EPOCH": "2025-12-25T23:15:38.712384", "MEAN_MOTION": 1.00267622, "ECCENTRICITY": 0.00031338, "INCLINATION": 0.0194, "RA_OF_ASC_NODE": 74.6696, "ARG_OF_PERICENTER": 105.3027, "MEAN_ANOMALY": 147.4825, "EPHEMERIS_TYPE": 0, "CLASSIFICATION_TYPE": "U", "NORAD_CAT_ID": 39360, "ELEMENT_SET_NO": 999, "REV_AT_EPOCH": 4433, "BSTAR": 0, "MEAN_MOTION_DOT": 5e-08, "MEAN_MOTION_DDOT": 0}, "tle": {"line1": "1 39360U 13058A   25359.96919806  .00000005  00000+0  00000+0 0  9993", "line2": "2 39360   0.0194  74.6696 0003133 105.3027 147.4825  1.00267622 44334"}}, "geometry": {"type": "Point", "coordinates": [-100.15987679347398, -0.01552175400913208]}}, {"type": "Feature", "properties": {"norad_id": 40271, "name": "INTELSAT 30 (IS-30)", "group": "intelsat", "lat": -0.030401048945329003, "lon": -79.05024221785122, "alt_km": 35791.657573898585, "timestamp": "2025-12-27T18:38:03.147105+00:00", "meta": {"OBJECT_NAME": "INTELSAT 30 (IS-30)", "OBJECT_ID": "2014-062A", "EPOCH": "2025-12-27T09:16:38.705376", "MEAN_MOTION": 1.00271778, "ECCENTRICITY": 0.0001349, "INCLINATION": 0.0134, "RA_OF_ASC_NODE": 31.7565, "ARG_OF_PERICENTER": 55.6618, "MEAN_ANOMALY": 52.8063, "EPHEMERIS_TYPE": 0, "CLASSIFICATION_TYPE": "U", "NORAD_CAT_ID": 40271, "ELEMENT_SET_NO": 999, "REV_AT_EPOCH": 507, "BSTAR": 0, "MEAN_MOTION_DOT": -1.28e-06, "MEAN_MOTION_DDOT": 0}, "tle": {"line1": "1 40271U 14062A   25361.38655909 -.00000128  00000+0  00000+0 0  9999", "line2": "2 40271   0.0134  31.7565 0001349  55.6618  52.8063  1.00271778  5078"}}, "geometry": {"type": "Point", "coordinates": [-79.05024221785122, -0.030401048945329003]}}, {"type": "Feature", "properties": {"norad_id": 40333, "name": "DIRECTV 14", "group": "intelsat", "lat": -0.0349955911935858, "lon": -83.2182865242072, "alt_km": 35786.790979901954, "timestamp": "2025-12-27T18:38:03.147117+00:00", "meta": {"OBJECT_NAME": "DIRECTV 14", "OBJECT_ID": "2014-078B", "EPOCH": "2025-12-27T09:06:20.204064", "MEAN_MOTION": 1.00269426, "ECCENTRICITY": 3.61e-05, "INCLINATION": 0.0194, "RA_OF_ASC_NODE": 342.3374, "ARG_OF_PERICENTER": 203.2124, "MEAN_ANOMALY": 307.9183, "EPHEMERIS_TYPE": 0, "CLASSIFICATION_TYPE": "U", "NORAD_CAT_ID": 40333, "ELEMENT_SET_NO": 999, "REV_AT_EPOCH": 4032, "BSTAR": 0, "MEAN_MOTION_DOT": -1.03e-06, "MEAN_MOTION_DDOT": 0}, "tle": {"line1": "1 40333U 14078B   25361.37940051 -.00000103  00000+0  00000+0 0  9992", "line2": "2 40333   0.0194 342.3374 0000361 203.2124 307.9183  1.00269426 40329"}}, "geometry": {"type": "Point", "coordinates": [-83.2182865242072, -0.0349955911935858]}}, {"type": "Feature", "properties": {"norad_id": 40663, "name": "DIRECTV 15", "group": "intelsat", "lat": -0.03542740274287859, "lon": -86.89910688646987, "alt_km": 35788.10385440377, "timestamp": "2025-12-27T18:38:03.147129+00:00", "meta": {"OBJECT_NAME": "DIRECTV 15", "OBJECT_ID": "2015-026A", "EPOCH": "2025-12-26T07:34:38.576064", "MEAN_MOTION": 1.00269733, "ECCENTRICITY": 3.61e-05, "INCLINATION": 0.018, "RA_OF_ASC_NODE": 29.1854, "ARG_OF_PERICENTER": 84.7041, "MEAN_ANOMALY": 351.9356, "EPHEMERIS_TYPE": 0, "CLASSIFICATION_TYPE": "U", "NORAD_CAT_ID": 40663, "ELEMENT_SET_NO": 999, "REV_AT_EPOCH": 3873, "BSTAR": 0, "MEAN_MOTION_DOT": -8e-07, "MEAN_MOTION_DDOT": 0}, "tle": {"line1": "1 40663U 15026A   25360.31572426 -.00000080  00000+0  00000+0 0  9996", "line2": "2 40663   0.0180  29.1854 0000361  84.7041 351.9356  1.00269733 38737"}}, "geometry": {"type": "Point", "coordinates": [-86.89910688646987, -0.03542740274287859]}}]}